EOSSAT-1                
1 55053U 23001AW  26068.73619225  .00007695  00000+0  24844-3 0  9992
2 55053  97.3357 130.2294 0011263 110.3168 249.9285 15.32339828176689
STARLINK-35425          
1 65874U 25223W   26068.88362698  .00032871  00000+0  11164-2 0  9991
2 65874  53.1607 293.3930 0000546 104.8489 255.2572 15.30220177 24239
