[{"OBJECT_NAME":"EOSSAT-1","OBJECT_ID":"2023-001AW","EPOCH":"2026-03-09T17:40:07.010400","MEAN_MOTION":15.32339828,"ECCENTRICITY":0.00112629,"INCLINATION":97.3357,"RA_OF_ASC_NODE":130.2294,"ARG_OF_PERICENTER":110.3168,"MEAN_ANOMALY":249.9285,"EPHEMERIS_TYPE":0,"CLASSIFICATION_TYPE":"U","NORAD_CAT_ID":55053,"ELEMENT_SET_NO":999,"REV_AT_EPOCH":17668,"BSTAR":0.00024844399,"MEAN_MOTION_DOT":7.695e-5,"MEAN_MOTION_DDOT":0},{"OBJECT_NAME":"STARLINK-35425","OBJECT_ID":"2025-223W","EPOCH":"2026-03-09T21:12:25.371936","MEAN_MOTION":15.30220177,"ECCENTRICITY":5.463e-5,"INCLINATION":53.1607,"RA_OF_ASC_NODE":293.393,"ARG_OF_PERICENTER":104.8489,"MEAN_ANOMALY":255.2572,"EPHEMERIS_TYPE":0,"CLASSIFICATION_TYPE":"U","NORAD_CAT_ID":65874,"ELEMENT_SET_NO":999,"REV_AT_EPOCH":2423,"BSTAR":0.0011163536,"MEAN_MOTION_DOT":0.00032871,"MEAN_MOTION_DDOT":0}]
